{"version": 0.6, "generator": "Overpass API 0.7.57.1 74a55df1", "osm3s": {"timestamp_osm_base": "2022-03-15T13:06:31Z", "timestamp_areas_base": "2022-03-15T11:25:06Z", "copyright": "The data included in this document is from www.openstreetmap.org. The data is made available under ODbL."}, "elements": [{"type": "node", "id": 277752144, "lat": 22.5476264, "lon": 114.0883482, "tags": {"brand": "Walmart", "brand:wikidata": "Q483551", "brand:wikipedia": "en:Walmart", "name": "Walmart", "name:en": "Walmart", "shop": "department_store", "source": "survey"}}, {"type": "node", "id": 335941187, "lat": 22.546539, "lon": 114.0779418, "tags": {"name": "Super Rainbow", "shop": "supermarket"}}, {"type": "node", "id": 1668233950, "lat": 22.5254662, "lon": 114.04825, "tags": {"addr:housename": "\u661f\u6cb3\u660e\u5c45", "name": "\u798f\u6c11\u5929\u8679\u5546\u573a", "shop": "supermarket"}}, {"type": "node", "id": 1694247944, "lat": 22.5439509, "lon": 114.0821952, "tags": {"addr:city": "\u6df1\u5733\u5e02", "addr:district": "\u798f\u7530\u533a", "addr:housenumber": "1002\u53f7", "addr:postcode": "518031", "addr:province": "\u5e7f\u4e1c\u7701", "addr:street": "\u534e\u5f3a\u5317\u8def", "name": "\u8d5b\u683c\u7535\u5b50\u5e02\u573a", "name:en": "SEG Electronics Market", "name:zh": "\u8d5b\u683c\u7535\u5b50\u5e02\u573a", "shop": "electronics", "source": "survey"}}, {"type": "node", "id": 1694252796, "lat": 22.5439832, "lon": 114.0812188, "tags": {"designation": "Owner", "name": "\u4e30\u5c14\u7535\u5b50", "name:en": "Yufo Electronics Components", "name:zh": "\u4e30\u5c14\u7535\u5b50", "phone": "+8613590258862", "shop": "electronics", "source": "survey"}}, {"type": "node", "id": 1703677452, "lat": 22.5536562, "lon": 114.0656899, "tags": {"addr:housename": "Lotus building", "name": "Haolinju Supermarket", "shop": "convenience"}}, {"type": "node", "id": 1719365464, "lat": 22.5674429, "lon": 114.0326558, "tags": {"name": "Vanguard Supermarket", "name:zh": "\u4e07\u5bb6\u8d85\u5e02", "shop": "supermarket"}}, {"type": "node", "id": 1719396459, "lat": 22.5687021, "lon": 114.0350397, "tags": {"brand": "Carrefour", "brand:wikidata": "Q217599", "brand:wikipedia": "fr:Carrefour (enseigne)", "name": "Carrefour", "name:zh": "\u5bb6\u4e50\u798f", "shop": "supermarket"}}, {"type": "node", "id": 2043203322, "lat": 22.5516464, "lon": 114.0645275, "tags": {"name": "Sun Now", "shop": "hairdresser"}}, {"type": "node", "id": 2319184092, "lat": 22.541989, "lon": 114.0935427, "tags": {"brand": "\u6c38\u65fa", "brand:en": "AEON", "brand:wikidata": "Q271413", "brand:wikipedia": "zh:\u6c38\u65fa", "brand:zh": "\u6c38\u65fa", "ele": "1", "name": "\u6c38\u65fa", "name:en": "AEON", "name:zh": "\u6c38\u65fa", "opening_hours": "10:00 22:00", "shop": "supermarket", "source": "survey"}}, {"type": "node", "id": 2535936952, "lat": 22.5676601, "lon": 114.0304602, "tags": {"name": "Dingdangda", "shop": "books"}}, {"type": "node", "id": 3557072869, "lat": 22.5252344, "lon": 114.0233624, "tags": {"name": "\u540d\u5e08\u7406\u53d1\u5e97", "name:en": "Mingshi Barber's Store", "shop": "hairdresser"}}, {"type": "node", "id": 3557072870, "lat": 22.5253194, "lon": 114.0234199, "tags": {"name": "\u6377\u60e0\u6c7d\u914d", "name:en": "Jiehui Auto Parts", "shop": "car_parts"}}, {"type": "node", "id": 3557072872, "lat": 22.5254506, "lon": 114.023521, "tags": {"name": "\u946b\u946b\u6587\u5177", "name:en": "Xinxin Stationery", "shop": "yes"}}, {"type": "node", "id": 3647001108, "lat": 22.5241044, "lon": 114.0428873, "tags": {"addr:street": "\u65b0\u6d32\u8def", "name": "\u5409\u4e4b\u5c9b\u65b0\u6d32\u5e97", "shop": "supermarket"}}, {"type": "node", "id": 3649830275, "lat": 22.5242329, "lon": 114.0381466, "tags": {"name": "\u5bb6\u4e50\u798f\u65b0\u6d32\u5e97", "shop": "supermarket"}}, {"type": "node", "id": 3651913097, "lat": 22.5113978, "lon": 114.0471928, "tags": {"name": "\u6c11\u6da6\u8d85\u5e02", "shop": "supermarket"}}, {"type": "node", "id": 3651913098, "lat": 22.5111996, "lon": 114.0442531, "tags": {"name": "\u597d\u53c8\u4e50\u8d85\u5e02", "shop": "supermarket"}}, {"type": "node", "id": 3651913099, "lat": 22.512716, "lon": 114.0416621, "tags": {"name": "\u7f8e\u5b9c\u4f73", "name:en": "meiyijia", "shop": "convenience"}}, {"type": "node", "id": 3661803743, "lat": 22.5156406, "lon": 114.055978, "tags": {"brand": "\u6613\u6377", "brand:en": "Easy Joy", "brand:wikidata": "Q108301051", "brand:zh": "\u6613\u6377", "name": "\u6613\u6377", "name:en": "Easy Joy", "name:zh": "\u6613\u6377", "operator": "\u4e2d\u56fd\u77f3\u5316", "shop": "convenience"}}, {"type": "node", "id": 3687632803, "lat": 22.5603042, "lon": 114.0274988, "tags": {"name": "A.fa \u9020\u578b\u7f8e\u53d1 \u8fde\u9501\u673a\u6784", "shop": "hairdresser"}}, {"type": "node", "id": 3687632804, "lat": 22.5603376, "lon": 114.0277324, "tags": {"name": "\u4e03\u8857\u516c\u9986\u4fbf\u5229\u5e97", "shop": "convenience"}}, {"type": "node", "id": 3687668842, "lat": 22.5611998, "lon": 114.0328922, "tags": {"name": "\u6613\u6377", "name:en": "Easy Joy", "name:zh": "\u6613\u6377", "shop": "convenience"}}, {"type": "node", "id": 3687766911, "lat": 22.558121, "lon": 114.031168, "tags": {"name": "\u5bcc\u534e\u6587\u5177", "shop": "stationery"}}, {"type": "node", "id": 3687767039, "lat": 22.5567356, "lon": 114.0298317, "tags": {"name": "\u8def\u59c6 \u8f7f\u4e4b\u6797\u8f6e\u80ce", "shop": "tyres"}}, {"type": "node", "id": 3687767049, "lat": 22.5559306, "lon": 114.0310199, "tags": {"name": "\u987a\u7535 SUNDAN", "name:en": "SUNDAN", "name:zh": "\u987a\u7535\u9999\u6885\u5206\u5e97", "shop": "electronics"}}, {"type": "node", "id": 3687781795, "lat": 22.5569683, "lon": 114.0398006, "tags": {"name": "\u534e\u6da6\u4e07\u5bb6", "name:en": "Vanguard", "name:zh": "\u534e\u6da6\u4e07\u5bb6", "shop": "supermarket"}}, {"type": "node", "id": 3717239780, "lat": 22.5574686, "lon": 114.0983637, "tags": {"name": "\u4e50\u8d2d", "operator": "\u534e\u6da6\u96c6\u56e2", "shop": "supermarket"}}, {"type": "node", "id": 3923052712, "lat": 22.5348989, "lon": 114.0491382, "tags": {"internet_access": "wlan", "name": "\u541b\u5c1a\u767e\u8d27\u4e2d\u5fc3\u5e97", "shop": "mall"}}, {"type": "node", "id": 4219320191, "lat": 22.5388208, "lon": 114.054889, "tags": {"brand": "H&M", "brand:wikidata": "Q188326", "brand:wikipedia": "en:H&M", "name": "H&M", "shop": "clothes"}}, {"type": "node", "id": 4574156999, "lat": 22.5526031, "lon": 114.0700121, "tags": {"name": "\u0421\u0423\u041f\u0415\u0420", "shop": "florist"}}, {"type": "node", "id": 4770392023, "lat": 22.5472183, "lon": 114.0638774, "tags": {"brand": "\u534e\u6da6\u4e07\u5bb6", "brand:en": "Vanguard", "brand:wikidata": "Q5099892", "brand:wikipedia": "zh:\u83ef\u6f64\u842c\u5bb6", "brand:zh": "\u534e\u6da6\u4e07\u5bb6", "name": "\u534e\u6da6\u4e07\u5bb6", "name:en": "Vanguard", "name:zh": "\u534e\u6da6\u4e07\u5bb6", "shop": "supermarket"}}, {"type": "node", "id": 4811786619, "lat": 22.5487407, "lon": 114.0809829, "tags": {"brand": "\u4f18\u8863\u5e93", "brand:en": "Uniqlo", "brand:wikidata": "Q26070", "brand:wikipedia": "en:Uniqlo", "brand:zh": "\u4f18\u8863\u5e93", "name": "\u4f18\u8863\u5e93", "name:en": "Uniqlo", "name:zh": "\u4f18\u8863\u5e93", "shop": "clothes"}}, {"type": "node", "id": 4866066721, "lat": 22.5469166, "lon": 114.07905, "tags": {"brand": "\u963f\u8fea\u8fbe\u65af", "brand:en": "Adidas", "brand:wikidata": "Q3895", "brand:wikipedia": "zh:\u611b\u8fea\u9054", "brand:zh": "\u963f\u8fea\u8fbe\u65af", "name": "\u963f\u8fea\u8fbe\u65af", "name:en": "Adidas", "name:zh": "\u963f\u8fea\u8fbe\u65af", "shop": "sports"}}, {"type": "node", "id": 4866086322, "lat": 22.5432477, "lon": 114.0790859, "tags": {"brand": "7-Eleven", "brand:wikidata": "Q259340", "brand:wikipedia": "en:7-Eleven", "name": "7-Eleven", "name:en": "7-eleven", "shop": "convenience"}}, {"type": "node", "id": 4871100282, "lat": 22.5603347, "lon": 114.0276042, "tags": {"name": "\u94b1\u5927\u5988", "name:en": "Qdama", "shop": "supermarket"}}, {"type": "node", "id": 5146364462, "lat": 22.5332572, "lon": 114.0411104, "tags": {"addr:city": "Futian", "addr:housename": "Citeduciel", "addr:postcode": "518048", "addr:street": "Xinsha", "name": "Number One Shop", "shop": "convenience"}}, {"type": "node", "id": 5535387321, "lat": 22.5435895, "lon": 114.0784741, "tags": {"brand": "\u963f\u8fea\u8fbe\u65af", "brand:en": "Adidas", "brand:wikidata": "Q3895", "brand:wikipedia": "zh:\u611b\u8fea\u9054", "brand:zh": "\u963f\u8fea\u8fbe\u65af", "name": "\u963f\u8fea\u8fbe\u65af", "name:en": "Adidas", "name:fr": "Adidas", "name:zh": "\u963f\u8fea\u8fbe\u65af", "shop": "sports"}}, {"type": "node", "id": 5568427721, "lat": 22.5461893, "lon": 114.0840278, "tags": {"name": "Longsheng watch acessories", "shop": "supermarket"}}, {"type": "node", "id": 6056820885, "lat": 22.5457737, "lon": 114.0812582, "tags": {"name": "International Maker Space", "shop": "computer"}}, {"type": "node", "id": 6346173286, "lat": 22.5635323, "lon": 114.0585536, "tags": {"name": "\u534e\u6da6\u4e07\u5bb6", "name:en": "Vanguard Fresh Market", "shop": "supermarket"}}, {"type": "node", "id": 6919993638, "lat": 22.5477247, "lon": 114.0063602, "tags": {"name": "V24\u751f\u9c9c\u65f6\u9009", "shop": "supermarket"}}, {"type": "node", "id": 6933330524, "lat": 22.520435, "lon": 114.0566465, "tags": {"addr:city": "Shenzhen", "addr:district": "Futian", "addr:housenumber": "16", "addr:province": "Guangdong", "addr:street": "\u7687\u5c97\u516c\u56ed\u4e00\u8857", "name": "\u4e50\u5947\u4fbf\u5229\u8d85\u5e02", "name:en": "Leqi Convenience Supermarket", "opening_hours": "24/7", "shop": "convenience"}}, {"type": "node", "id": 7128759252, "lat": 22.5410675, "lon": 114.089566, "tags": {"brand": "7-Eleven", "brand:wikidata": "Q259340", "brand:wikipedia": "en:7-Eleven", "name": "7-Eleven", "shop": "convenience"}}, {"type": "node", "id": 7241618643, "lat": 22.5387946, "lon": 114.0545232, "tags": {"brand": "\u5bb6\u4e50\u798f", "brand:en": "Carrefour", "brand:wikidata": "Q3117359", "brand:wikipedia": "zh:\u5bb6\u6a02\u798f", "brand:zh": "\u5bb6\u4e50\u798f", "name": "\u5bb6\u4e50\u798f", "name:en": "Carrefour", "name:zh": "\u5bb6\u4e50\u798f", "shop": "supermarket"}}, {"type": "node", "id": 7637867985, "lat": 22.5291883, "lon": 114.0620426, "tags": {"name": "\u5e78\u798f\u5bb6\u8d85\u7ea7\u5e02\u573a", "name:en": "Xingfujia Supermarket", "name:zh": "\u5e78\u798f\u5bb6\u8d85\u7ea7\u5e02\u573a", "shop": "supermarket"}}, {"type": "node", "id": 7637867998, "lat": 22.5295794, "lon": 114.0623656, "tags": {"name": "\u94b1\u5927\u5988", "shop": "butcher"}}, {"type": "node", "id": 7637867999, "lat": 22.5295018, "lon": 114.0625537, "tags": {"name": "\u767e\u679c\u56ed", "shop": "greengrocer"}}, {"type": "node", "id": 7637868006, "lat": 22.5302792, "lon": 114.0618263, "tags": {"name": "\u60e0\u5b9c\u8d2d\u751f\u6d3b\u8d85\u5e02", "name:en": "Huiyigou Supermarket", "name:zh": "\u60e0\u5b9c\u8d2d\u751f\u6d3b\u8d85\u5e02", "shop": "supermarket"}}, {"type": "node", "id": 7679918907, "lat": 22.5350445, "lon": 114.0642242, "tags": {"name": "\u767e\u679c\u56ed", "shop": "greengrocer"}}, {"type": "node", "id": 7679918908, "lat": 22.5349611, "lon": 114.0642252, "tags": {"name": "\u5929\u8679\u5fae\u5594\u4fbf\u5229\u5e97", "shop": "convenience"}}, {"type": "node", "id": 7682397170, "lat": 22.5343387, "lon": 114.0637241, "tags": {"name": "\u5bb6\u548c\u4e50\u751f\u6d3b\u8d85\u5e02", "shop": "supermarket"}}, {"type": "node", "id": 7682397171, "lat": 22.5352245, "lon": 114.0642913, "tags": {"name": "\u9e3f\u56fe\u56fe\u6587", "shop": "copyshop"}}, {"type": "node", "id": 7682397172, "lat": 22.5352245, "lon": 114.064222, "tags": {"name": "\u798f\u9686\u6e90\u5546\u884c", "shop": "yes"}}, {"type": "node", "id": 7682397173, "lat": 22.5351066, "lon": 114.0642234, "tags": {"name": "\u4f73\u8054\u5370\u52a1", "shop": "copyshop"}}, {"type": "node", "id": 7682467596, "lat": 22.5337548, "lon": 114.0652319, "tags": {"name": "\u67ef\u8fbe\u5f71\u50cf\u4e1c\u6021\u6570\u7801\u51b2\u5370", "shop": "photo"}}, {"type": "node", "id": 7682467612, "lat": 22.5327358, "lon": 114.0656433, "tags": {"brand": "\u7f8e\u5b9c\u4f73", "brand:en": "Meiyijia", "brand:wikidata": "Q97300244", "brand:wikipedia": "zh:\u7f8e\u5b9c\u4f73", "brand:zh": "\u7f8e\u5b9c\u4f73", "name": "\u7f8e\u5b9c\u4f73", "name:en": "Meiyijia", "name:zh": "\u7f8e\u5b9c\u4f73", "shop": "convenience"}}, {"type": "node", "id": 7682467614, "lat": 22.5329245, "lon": 114.0651879, "tags": {"name": "\u4e1c\u534e\u5546\u5e97", "shop": "convenience"}}, {"type": "node", "id": 7682467615, "lat": 22.5329245, "lon": 114.0650677, "tags": {"name": "\u9a8f\u2014\u5e7f\u544a\u62db\u724c\u5370\u5237", "shop": "copyshop"}}, {"type": "node", "id": 7682467619, "lat": 22.5329253, "lon": 114.0644565, "tags": {"name": "\u8054\u534e\u7f51\u7edc\u8d85\u5e02", "shop": "convenience"}}, {"type": "node", "id": 7682467620, "lat": 22.533517, "lon": 114.0639734, "tags": {"brand": "7-Eleven", "brand:wikidata": "Q259340", "brand:wikipedia": "en:7-Eleven", "name": "7-Eleven", "shop": "convenience"}}, {"type": "node", "id": 7682467639, "lat": 22.5294521, "lon": 114.0616735, "tags": {"name": "\u4fbf\u5229\u5e97", "shop": "convenience"}}, {"type": "node", "id": 7682467648, "lat": 22.5295446, "lon": 114.0621033, "tags": {"brand": "7-Eleven", "brand:wikidata": "Q259340", "brand:wikipedia": "en:7-Eleven", "name": "7-Eleven", "shop": "convenience"}}, {"type": "node", "id": 7684656136, "lat": 22.5295018, "lon": 114.0624449, "tags": {"name": "\u5174\u7cae\u54c1\u6c64\u5305", "shop": "bakery"}}, {"type": "node", "id": 7684656141, "lat": 22.5302661, "lon": 114.0623735, "tags": {"name": "\u7687\u65b0\u798f\u4e1a\u4fbf\u5229\u5e97", "shop": "convenience"}}, {"type": "node", "id": 7684656148, "lat": 22.5304301, "lon": 114.0620788, "tags": {"name": "\u6b63\u5b97\u5e72\u6d17", "shop": "dry_cleaning"}}, {"type": "node", "id": 7684656149, "lat": 22.5304921, "lon": 114.0620799, "tags": {"name": "\u4e3b\u9898\u9020\u578b", "shop": "hairdresser"}}, {"type": "node", "id": 7950517552, "lat": 22.5350168, "lon": 114.0760825, "tags": {"brand": "Walmart", "brand:wikidata": "Q483551", "brand:wikipedia": "en:Walmart", "name": "Walmart", "shop": "department_store"}}, {"type": "node", "id": 7953723906, "lat": 22.5392514, "lon": 114.0604298, "tags": {"addr:city": "\u6df1\u5733\u5e02", "addr:district": "\u798f\u7530\u533a", "addr:housenumber": "348", "addr:postcode": "518000", "addr:province": "\u5e7f\u4e1c\u7701", "addr:street": "\u798f\u534e\u4e00\u8def", "brand": "\u5c0f\u7c73", "brand:en": "Xiaomi", "brand:wikidata": "Q1636958", "brand:wikipedia": "zh:\u5c0f\u7c73\u96c6\u5718", "brand:zh": "\u5c0f\u7c73\u4e4b\u5bb6", "level": "-1", "name": "\u5c0f\u7c73\u4e4b\u5bb6", "name:en": "Xiaomi", "name:zh": "\u5c0f\u7c73\u4e4b\u5bb6", "opening_hours": "Mo-Su 10:00-22:00", "opening_hours:covid19": "Mo-Su 10:00-22:00", "operator": "\u5c0f\u7c73\u79d1\u6280\u6709\u9650\u8d23\u4efb\u516c\u53f8", "payment:alipay": "yes", "payment:cash": "yes", "payment:credit_cards": "yes", "payment:wechat": "yes", "phone": "+86-755-83263050", "shop": "mobile_phone", "website": "https://www.mi.com/"}}, {"type": "node", "id": 7963887471, "lat": 22.5367964, "lon": 114.0481524, "tags": {"addr:city": "\u6df1\u5733\u5e02", "addr:district": "\u798f\u7530\u533a", "addr:housenumber": "268", "addr:postcode": "518000", "addr:province": "\u5e7f\u4e1c\u7701", "addr:street": "\u798f\u534e\u4e09\u8def", "brand": "\u4f18\u8863\u5e93", "brand:en": "Uniqlo", "brand:wikidata": "Q26070", "brand:wikipedia": "en:Uniqlo", "brand:zh": "\u4f18\u8863\u5e93", "name": "\u4f18\u8863\u5e93", "name:en": "Uniqlo", "name:zh": "\u4f18\u8863\u5e93", "shop": "clothes"}}, {"type": "node", "id": 7963887472, "lat": 22.5358079, "lon": 114.0494104, "tags": {"addr:city": "\u6df1\u5733\u5e02", "addr:district": "\u798f\u7530\u533a", "addr:housenumber": "268", "addr:postcode": "518000", "addr:province": "\u5e7f\u4e1c\u7701", "addr:street": "\u798f\u534e\u4e09\u8def", "brand": "\u7121\u5370\u826f\u54c1", "brand:en": "Muji", "brand:ja": "\u7121\u5370\u826f\u54c1", "brand:wikidata": "Q708789", "brand:wikipedia": "ja:\u826f\u54c1\u8a08\u753b", "name": "\u7121\u5370\u826f\u54c1", "name:en": "Muji", "name:ja": "\u7121\u5370\u826f\u54c1", "name:zh": "\u65e0\u5370\u826f\u54c1", "official_name:en": "Ryohin Keikaku", "shop": "department_store"}}, {"type": "node", "id": 7963887473, "lat": 22.5363852, "lon": 114.0490724, "tags": {"addr:city": "\u6df1\u5733\u5e02", "addr:district": "\u798f\u7530\u533a", "addr:housenumber": "268", "addr:postcode": "518000", "addr:province": "\u5e7f\u4e1c\u7701", "addr:street": "\u798f\u534e\u4e09\u8def", "brand": "\u9762\u5305\u65b0\u8bed", "brand:en": "BreadTalk", "brand:wikidata": "Q1106640", "brand:wikipedia": "zh:\u9762\u5305\u65b0\u8bed", "brand:zh": "\u9762\u5305\u65b0\u8bed", "name": "\u9762\u5305\u65b0\u8bed", "name:en": "BreadTalk", "name:zh": "\u9762\u5305\u65b0\u8bed", "shop": "bakery"}}, {"type": "node", "id": 7973114720, "lat": 22.5388528, "lon": 114.0260879, "tags": {"brand": "7-Eleven", "brand:wikidata": "Q259340", "brand:wikipedia": "en:7-Eleven", "name": "7-Eleven", "shop": "convenience"}}, {"type": "node", "id": 7973114721, "lat": 22.5383286, "lon": 114.0253952, "tags": {"brand": "\u5168\u5bb6", "brand:en": "FamilyMart", "brand:wikidata": "Q1191685", "brand:wikipedia": "zh:FamilyMart", "name": "\u5168\u5bb6", "name:en": "FamilyMart", "shop": "convenience"}}, {"type": "node", "id": 8244788888, "lat": 22.5296691, "lon": 114.0626108, "tags": {"name": "\u827e\u4e3d\u5343\u987a\u9ad8\u6863\u70df\u8336\u9152\u5546\u884c", "shop": "wine"}}, {"type": "node", "id": 8244788896, "lat": 22.5300338, "lon": 114.0626081, "tags": {"name": "\u534e\u53d1\u58eb\u591a\u5e97", "shop": "convenience"}}, {"type": "node", "id": 8377789153, "lat": 22.5382203, "lon": 114.0607951, "tags": {"name": "\u4e2d\u56fd\u674e\u5b81", "name:zh": "\u4e2d\u56fd\u674e\u5b81", "shop": "sports"}}, {"type": "node", "id": 8377789155, "lat": 22.5390477, "lon": 114.0605671, "tags": {"name": "\u5927\u7586", "name:en": "DJI", "name:zh": "\u5927\u7586", "shop": "electronics"}}, {"type": "node", "id": 8377789156, "lat": 22.5390552, "lon": 114.0602533, "tags": {"brand": "\u4f18\u8863\u5e93", "brand:en": "Uniqlo", "brand:wikidata": "Q26070", "brand:wikipedia": "en:Uniqlo", "brand:zh": "\u4f18\u8863\u5e93", "name": "\u4f18\u8863\u5e93", "name:en": "Uniqlo", "name:zh": "\u4f18\u8863\u5e93", "shop": "clothes"}}, {"type": "node", "id": 8377789157, "lat": 22.5379404, "lon": 114.0616588, "tags": {"brand": "7-Eleven", "brand:wikidata": "Q259340", "brand:wikipedia": "en:7-Eleven", "name": "7-Eleven", "shop": "convenience"}}, {"type": "node", "id": 8377789158, "lat": 22.5386934, "lon": 114.0547149, "tags": {"brand": "\u5c0f\u7c73", "brand:en": "Xiaomi", "brand:wikidata": "Q1636958", "brand:wikipedia": "zh:\u5c0f\u7c73\u96c6\u5718", "brand:zh": "\u5c0f\u7c73\u4e4b\u5bb6", "name": "\u5c0f\u7c73\u4e4b\u5bb6", "name:en": "Xiaomi", "name:zh": "\u5c0f\u7c73\u4e4b\u5bb6", "shop": "mobile_phone"}}, {"type": "node", "id": 8437590500, "lat": 22.5261278, "lon": 114.0523571, "tags": {"branch": "(\u76ca\u7530\u5e97)", "brand": "\u534e\u6da6\u4e07\u5bb6", "brand:en": "Vanguard", "brand:wikidata": "Q5099892", "brand:wikipedia": "zh:\u83ef\u6f64\u842c\u5bb6", "brand:zh": "\u534e\u6da6\u4e07\u5bb6", "name": "\u534e\u6da6\u4e07\u5bb6", "name:en": "Vanguard", "name:zh": "\u534e\u6da6\u4e07\u5bb6", "shop": "supermarket"}}, {"type": "node", "id": 8930476554, "lat": 22.5365546, "lon": 114.0479621, "tags": {"name": "\u7535\u5b50\u70df\u5e97\u5929\u4f7f", "shop": "e-cigarette"}}, {"type": "node", "id": 9070430756, "lat": 22.561234, "lon": 114.0986756, "tags": {"brand": "\u6c83\u5c14\u739b", "brand:en": "Walmart", "brand:wikidata": "Q483551", "brand:wikipedia": "zh:\u6c83\u5c14\u739b", "brand:zh": "\u6c83\u5c14\u739b", "name": "\u6c83\u5c14\u739b", "name:en": "Walmart", "name:zh": "\u6c83\u5c14\u739b", "shop": "supermarket"}}, {"type": "node", "id": 9070430758, "lat": 22.543819, "lon": 114.0798816, "tags": {"name": "\u4f73\u548c\u7535\u5b50\u5e02\u573a", "shop": "wholesale"}}, {"type": "node", "id": 9572095679, "lat": 22.5417491, "lon": 114.0946223, "tags": {"brand": "\u7121\u5370\u826f\u54c1", "brand:en": "Muji", "brand:ja": "\u7121\u5370\u826f\u54c1", "brand:wikidata": "Q708789", "brand:wikipedia": "ja:\u826f\u54c1\u8a08\u753b", "name": "\u7121\u5370\u826f\u54c1", "name:en": "Muji", "name:ja": "\u7121\u5370\u826f\u54c1", "official_name:en": "Ryohin Keikaku", "shop": "department_store"}}]}